QZS-3 (MICHIBIKI-3)     
1 42917U 17048A   26195.01390285 -.00000354  00000+0  00000+0 0  9995
2 42917   0.0673 215.5305 0002487 271.0428 297.3485  1.00272637 32525
AMAZONAS 5              
1 42934U 17053A   26195.04791514 -.00000288  00000+0  00000+0 0  9999
2 42934   0.0321 328.7293 0001030 114.1312 165.2908  1.00268891 32316
ASIASAT 9               
1 42942U 17057A   26195.01277616 -.00000365  00000+0  00000+0 0  9997
2 42942   0.0153  36.4372 0002359  63.4828 318.6680  1.00271365 32122
INTELSAT 37E (IS-37E)   
1 42950U 17059A   26195.12772163 -.00000147  00000+0  00000+0 0  9995
2 42950   0.0035 114.7684 0002563   8.7643 196.4277  1.00269770 32334
BSAT-4A                 
1 42951U 17059B   26194.51146824 -.00000354  00000+0  00000+0 0  9997
2 42951   0.0357  21.9752 0003393  56.7278 146.6395  1.00272286 32060
QZS-4 (MICHIBIKI-4)     
1 42965U 17062A   26193.73476241 -.00000331  00000+0  00000+0 0  9993
2 42965  40.0933 343.1604 0747458 268.5188  82.4158  1.00290649 32050
SES-11 (ECHOSTAR 105)   
1 42967U 17063A   26195.11058086 -.00000095  00000+0  00000+0 0  9990
2 42967   0.0404 295.3829 0002642 167.2119 124.2350  1.00270995 31999
KOREASAT 5A             
1 42984U 17067A   26195.01112949 -.00000364  00000+0  00000+0 0  9990
2 42984   0.0110  44.8297 0000698  76.1265 288.0772  1.00270400 31793
ALCOMSAT 1              
1 43039U 17078A   26195.12642163 -.00000193  00000+0  00000+0 0  9992
2 43039   0.0550 264.7426 0002196 205.2822 202.6690  1.00268848 31568
SBIRS GEO-3 (USA 282)   
1 43162U 18009A   26195.19567426  .00000121  00000+0  00000+0 0  9999
2 43162   2.2039  13.3488 0001719  99.8142  89.9493  1.00271930 31113
AL YAH 3                
1 43174U 18012A   26195.12728830 -.00000163  00000+0  00000+0 0  9994
2 43174   1.6190  82.7798 0003509  29.8279 205.0990  1.00270755 31111
SES-14                  
1 43175U 18012B   26195.12191494 -.00000285  00000+0  00000+0 0  9990
2 43175   0.0128  29.9471 0000817  96.1956 162.2255  1.00269903  7298
GOES 17                 
1 43226U 18022A   26195.11361419 -.00000190  00000+0  00000+0 0  9998
2 43226   1.0039  85.2736 0000538  83.4541  74.6594  1.00271204 30694
HISPASAT 30W-6          
1 43228U 18023A   26195.12538162 -.00000222  00000+0  00000+0 0  9999
2 43228   0.0444  50.2849 0005130  39.9946 216.8713  1.00270644 30678
SUPERBIRD-B3            
1 43271U 18033A   26195.16342847 -.00000099  00000+0  00000+0 0  9997
2 43271   0.0058  86.5149 0001021  43.8418  22.5130  1.00270749 30339
HYLAS 4                 
1 43272U 18033B   26195.12468830 -.00000240  00000+0  00000+0 0  9993
2 43272   0.0186 302.7480 0000882 195.5993 165.0342  1.00270895 30330
IRNSS-1I                
1 43286U 18035A   26192.95526044  .00000056  00000+0  00000+0 0  9994
2 43286  28.8098  73.8104 0018194 177.6706  77.3491  1.00278376 30323
USA 283                 
1 43339U 18036A   26194.51831527  .00000000  00000+0  00000+0 0  9992
2 43339   0.0181  51.7317 0001010 164.1991  36.1561  1.00270146 25551
COSMOS 2526             
1 43432U 18037A   26195.22796949 -.00000351  00000+0  00000+0 0  9994
2 43432   0.0343  94.7101 0001074 160.1761 247.3330  1.00272710 30234
APSTAR-6C               
1 43450U 18041A   26194.44501775 -.00000321  00000+0  00000+0 0  9990
2 43450   0.0221   1.4288 0000590 278.9644 305.1336  1.00269327 30071
BANGABANDHUSAT-1        
1 43463U 18044A   26195.01234284 -.00000368  00000+0  00000+0 0  9990
2 43463   0.0204  94.1566 0001653  31.8489 289.4118  1.00270628 29973
SES-12                  
1 43488U 18049A   26195.07888022 -.00000275  00000+0  00000+0 0  9990
2 43488   0.0106   8.0451 0000798 245.7978 161.5003  1.00270208 29681
FENGYUN 2H              
1 43491U 18050A   26195.07567355 -.00000135  00000+0  00000+0 0  9994
2 43491   3.0972  78.7513 0002322 133.9706 185.6130  1.00267238 29704
BEIDOU-2 IGSO-7         
1 43539U 18057A   26182.89122331 -.00000033  00000+0  00000+0 0  9998
2 43539  55.1981 162.9292 0104946 237.8611 308.6338  1.00246939 29273
TELSTAR 19V             
1 43562U 18059A   26195.18965803 -.00000286  00000+0  00000+0 0  9991
2 43562   0.0295 142.9855 0002850 348.9822 165.3576  1.00269350 29418
TELKOM 4 (MERAH PUTIH)  
1 43587U 18064A   26195.08139358 -.00000350  00000+0  00000+0 0  9993
2 43587   0.0214  81.0454 0000987  40.0745 308.1214  1.00269408 29147
TELSTAR 18V             
1 43611U 18069A   26194.52037462 -.00000298  00000+0  00000+0 0  9998
2 43611   0.0151 318.0250 0001663 158.6111 140.0899  1.00269998 28906
AZERSPACE 2 (IS-38)     
1 43632U 18074A   26195.14028838  .00000000  00000+0  00000+0 0  9993
2 43632   0.0267  50.4037 0001255  72.8900 264.3361  1.00269941 28718
HORIZONS-3E             
1 43633U 18074B   26194.64002853 -.00000035  00000+0  00000+0 0  9996
2 43633   0.0498 224.9289 0000941  53.6947  52.2963  1.00270118 28609
AEHF-4 (USA 288)        
1 43651U 18079A   26195.12265105 -.00000282  00000+0  00000+0 0  9990
2 43651   1.4393   6.2043 0058552 353.9770 268.3877  1.00276652 28566
BEIDOU-3 G1             
1 43683U 18085A   26195.16299515 -.00000118  00000+0  00000+0 0  9996
2 43683   2.9334  96.6430 0008025 356.2152  57.8074  1.00272522 28332
GSAT-29                 
1 43698U 18089A   26195.14219506  .00000078  00000+0  00000+0 0  9990
2 43698   0.0588 242.1020 0002939 202.9301 313.2853  1.00275550 28059
