OBJECT_NAME,OBJECT_ID,EPOCH,MEAN_MOTION,ECCENTRICITY,INCLINATION,RA_OF_ASC_NODE,ARG_OF_PERICENTER,MEAN_ANOMALY,EPHEMERIS_TYPE,CLASSIFICATION_TYPE,NORAD_CAT_ID,ELEMENT_SET_NO,REV_AT_EPOCH,BSTAR,MEAN_MOTION_DOT,MEAN_MOTION_DDOT
QZS-3 (MICHIBIKI-3),2017-048A,2026-07-14T00:20:01.206240,1.00272637,.0002487,0.0673,215.5305,271.0428,297.3485,0,U,42917,999,3252,0,-.354E-5,0
AMAZONAS 5,2017-053A,2026-07-14T01:08:59.868096,1.00268891,.000103,0.0321,328.7293,114.1312,165.2908,0,U,42934,999,3231,0,-.288E-5,0
ASIASAT 9,2017-057A,2026-07-14T00:18:23.860224,1.00271365,.0002359,0.0153,36.4372,63.4828,318.6680,0,U,42942,999,3212,0,-.365E-5,0
INTELSAT 37E (IS-37E),2017-059A,2026-07-14T03:03:55.148832,1.00269770,.0002563,0.0035,114.7684,8.7643,196.4277,0,U,42950,999,3233,0,-.147E-5,0
BSAT-4A,2017-059B,2026-07-13T12:16:30.855936,1.00272286,.00033938,0.0357,21.9752,56.7278,146.6395,0,U,42951,999,3206,0,-.354E-5,0
QZS-4 (MICHIBIKI-4),2017-062A,2026-07-12T17:38:03.472224,1.00290649,.07474587,40.0933,343.1604,268.5188,82.4158,0,U,42965,999,3205,0,-.331E-5,0
SES-11 (ECHOSTAR 105),2017-063A,2026-07-14T02:39:14.186304,1.00270995,.0002642,0.0404,295.3829,167.2119,124.2350,0,U,42967,999,3199,0,-.95E-6,0
KOREASAT 5A,2017-067A,2026-07-14T00:16:01.587936,1.00270400,.0000698,0.0110,44.8297,76.1265,288.0772,0,U,42984,999,3179,0,-.364E-5,0
ALCOMSAT 1,2017-078A,2026-07-14T03:02:02.828832,1.00268848,.0002196,0.0550,264.7426,205.2822,202.6690,0,U,43039,999,3156,0,-.193E-5,0
SBIRS GEO-3 (USA 282),2018-009A,2026-07-14T04:41:46.256064,1.00271930,.0001719,2.2039,13.3488,99.8142,89.9493,0,U,43162,999,3111,0,.121E-5,0
AL YAH 3,2018-012A,2026-07-14T03:03:17.709120,1.00270755,.0003509,1.6190,82.7798,29.8279,205.0990,0,U,43174,999,3111,0,-.163E-5,0
SES-14,2018-012B,2026-07-14T02:55:33.450816,1.00269903,.0000817,0.0128,29.9471,96.1956,162.2255,0,U,43175,999,729,0,-.285E-5,0
GOES 17,2018-022A,2026-07-14T02:43:36.266016,1.00271204,.0000538,1.0039,85.2736,83.4541,74.6594,0,U,43226,999,3069,0,-.19E-5,0
HISPASAT 30W-6,2018-023A,2026-07-14T03:00:32.971968,1.00270644,.000513,0.0444,50.2849,39.9946,216.8713,0,U,43228,999,3067,0,-.222E-5,0
SUPERBIRD-B3,2018-033A,2026-07-14T03:55:20.219808,1.00270749,.0001021,0.0058,86.5149,43.8418,22.5130,0,U,43271,999,3033,0,-.99E-6,0
HYLAS 4,2018-033B,2026-07-14T02:59:33.069120,1.00270895,.0000882,0.0186,302.7480,195.5993,165.0342,0,U,43272,999,3033,0,-.24E-5,0
IRNSS-1I,2018-035A,2026-07-11T22:55:34.502016,1.00278376,.0018194,28.8098,73.8104,177.6706,77.3491,0,U,43286,999,3032,0,.56E-6,0
USA 283,2018-036A,2026-07-13T12:26:22.439328,1.00270146,.000101,0.0181,51.7317,164.1991,36.1561,0,U,43339,999,2555,0,0,0
COSMOS 2526,2018-037A,2026-07-14T05:28:16.563936,1.00272710,.0001074,0.0343,94.7101,160.1761,247.3330,0,U,43432,999,3023,0,-.351E-5,0
APSTAR-6C,2018-041A,2026-07-13T10:40:49.533600,1.00269327,.000059,0.0221,1.4288,278.9644,305.1336,0,U,43450,999,3007,0,-.321E-5,0
BANGABANDHUSAT-1,2018-044A,2026-07-14T00:17:46.421376,1.00270628,.0001653,0.0204,94.1566,31.8489,289.4118,0,U,43463,999,2997,0,-.368E-5,0
SES-12,2018-049A,2026-07-14T01:53:35.251008,1.00270208,.0000798,0.0106,8.0451,245.7978,161.5003,0,U,43488,999,2968,0,-.275E-5,0
FENGYUN 2H,2018-050A,2026-07-14T01:48:58.194720,1.00267238,.0002322,3.0972,78.7513,133.9706,185.6130,0,U,43491,999,2970,0,-.135E-5,0
BEIDOU-2 IGSO-7,2018-057A,2026-07-01T21:23:21.693984,1.00246939,.01049468,55.1981,162.9292,237.8611,308.6338,0,U,43539,999,2927,0,-.33E-6,0
TELSTAR 19V,2018-059A,2026-07-14T04:33:06.453792,1.00269350,.000285,0.0295,142.9855,348.9822,165.3576,0,U,43562,999,2941,0,-.286E-5,0
TELKOM 4 (MERAH PUTIH),2018-064A,2026-07-14T01:57:12.405312,1.00269408,.0000987,0.0214,81.0454,40.0745,308.1214,0,U,43587,999,2914,0,-.35E-5,0
TELSTAR 18V,2018-069A,2026-07-13T12:29:20.367168,1.00269998,.00016639,0.0151,318.0250,158.6111,140.0899,0,U,43611,999,2890,0,-.298E-5,0
AZERSPACE 2 (IS-38),2018-074A,2026-07-14T03:22:00.916032,1.00269941,.0001255,0.0267,50.4037,72.8900,264.3361,0,U,43632,999,2871,0,0,0
HORIZONS-3E,2018-074B,2026-07-13T15:21:38.464992,1.00270118,.0000941,0.0498,224.9289,53.6947,52.2963,0,U,43633,999,2860,0,-.35E-6,0
AEHF-4 (USA 288),2018-079A,2026-07-14T02:56:37.050720,1.00276652,.0058552,1.4393,6.2043,353.9770,268.3877,0,U,43651,999,2856,0,-.282E-5,0
BEIDOU-3 G1,2018-085A,2026-07-14T03:54:42.780960,1.00272522,.0008025,2.9334,96.6430,356.2152,57.8074,0,U,43683,999,2833,0,-.118E-5,0
GSAT-29,2018-089A,2026-07-14T03:24:45.653184,1.00275550,.0002939,0.0588,242.1020,202.9301,313.2853,0,U,43698,999,2805,0,.78E-6,0
